start=new Date('2022-03-31T00:00:00.000Z').valueOf();
sats=[{"REV_AT_EPOCH":"368","SITE":"AFETR","ELEMENT_SET_NO":"999","TLE_LINE1":"1 51465U 22010K   22089.91667824 -.00711200  00000-0 -25020-1 0  9993","LAUNCH_DATE":"2022-02-03","PERIOD":"94.029","OBJECT_ID":"2022-010K","SEMIMAJOR_AXIS":"6849.667","MEAN_MOTION_DOT":"-0.00711200","DECAY_DATE":null,"FILE":"3380787","PERIAPSIS":"470.266","BSTAR":"-0.02502000000000","GP_ID":"200100153","EPOCH":"2022-03-30T22:00:00.999936","MEAN_MOTION_DDOT":"0.0000000000000","REF_FRAME":"TEME","INCLINATION":"53.2175","NORAD_CAT_ID":"51465","RCS_SIZE":"LARGE","EPHEMERIS_TYPE":"0","OBJECT_NAME":"STARLINK-3401","TLE_LINE2":"2 51465  53.2175 263.6077 0001848  40.0767 197.7328 15.31435137  3689","MEAN_ELEMENT_THEORY":"SGP4","RA_OF_ASC_NODE":"263.6077","APOAPSIS":"472.797","OBJECT_TYPE":"PAYLOAD","COUNTRY_CODE":"US","MEAN_ANOMALY":"197.7328","CLASSIFICATION_TYPE":"U","ARG_OF_PERICENTER":"40.0767","ECCENTRICITY":"0.00018480","TIME_SYSTEM":"UTC","MEAN_MOTION":"15.31435137","CENTER_NAME":"EARTH"},{"REF_FRAME":"TEME","INCLINATION":"53.2173","MEAN_MOTION_DDOT":"0.0000000000000","EPOCH":"2022-03-30T22:00:00.999936","NORAD_CAT_ID":"51467","GP_ID":"200100681","MEAN_MOTION_DOT":"-0.00711897","SEMIMAJOR_AXIS":"6856.483","OBJECT_ID":"2022-010M","BSTAR":"-0.02689400000000","DECAY_DATE":null,"PERIAPSIS":"477.169","FILE":"3380787","TLE_LINE1":"1 51467U 22010M   22089.91667824 -.00711897  00000-0 -26894-1 0  9997","SITE":"AFETR","REV_AT_EPOCH":"369","ELEMENT_SET_NO":"999","PERIOD":"94.170","LAUNCH_DATE":"2022-02-03","MEAN_MOTION":"15.29152151","ARG_OF_PERICENTER":"38.9178","CLASSIFICATION_TYPE":"U","ECCENTRICITY":"0.00017190","TIME_SYSTEM":"UTC","CENTER_NAME":"EARTH","COUNTRY_CODE":"US","MEAN_ANOMALY":"54.2101","RA_OF_ASC_NODE":"263.5494","APOAPSIS":"479.526","OBJECT_TYPE":"PAYLOAD","EPHEMERIS_TYPE":"0","RCS_SIZE":"LARGE","MEAN_ELEMENT_THEORY":"SGP4","OBJECT_NAME":"STARLINK-3178","TLE_LINE2":"2 51467  53.2173 263.5494 0001719  38.9178  54.2101 15.29152151  3696"},{"CENTER_NAME":"EARTH","MEAN_MOTION":"15.31146134","TIME_SYSTEM":"UTC","ECCENTRICITY":"0.00015730","CLASSIFICATION_TYPE":"U","ARG_OF_PERICENTER":"48.6970","MEAN_ANOMALY":"244.4773","COUNTRY_CODE":"US","OBJECT_TYPE":"PAYLOAD","RA_OF_ASC_NODE":"263.5531","APOAPSIS":"473.471","MEAN_ELEMENT_THEORY":"SGP4","TLE_LINE2":"2 51468  53.2175 263.5531 0001573  48.6970 244.4773 15.31146134  3681","OBJECT_NAME":"STARLINK-3174","EPHEMERIS_TYPE":"0","RCS_SIZE":"LARGE","NORAD_CAT_ID":"51468","INCLINATION":"53.2175","REF_FRAME":"TEME","MEAN_MOTION_DDOT":"0.0000000000000","EPOCH":"2022-03-30T22:00:00.999936","GP_ID":"200100048","BSTAR":"-0.02531900000000","PERIAPSIS":"471.316","FILE":"3380787","DECAY_DATE":null,"MEAN_MOTION_DOT":"-0.00713018","SEMIMAJOR_AXIS":"6850.529","OBJECT_ID":"2022-010N","PERIOD":"94.047","LAUNCH_DATE":"2022-02-03","TLE_LINE1":"1 51468U 22010N   22089.91667824 -.00713018  00000-0 -25319-1 0  9996","ELEMENT_SET_NO":"999","REV_AT_EPOCH":"368","SITE":"AFETR"},{"OBJECT_NAME":"STARLINK-3182","TLE_LINE2":"2 51469  53.2175 263.6091 0001578  54.6695 156.6635 15.31178759  3690","MEAN_ELEMENT_THEORY":"SGP4","RCS_SIZE":"LARGE","EPHEMERIS_TYPE":"0","RA_OF_ASC_NODE":"263.6091","APOAPSIS":"473.377","OBJECT_TYPE":"PAYLOAD","COUNTRY_CODE":"US","MEAN_ANOMALY":"156.6635","CENTER_NAME":"EARTH","CLASSIFICATION_TYPE":"U","ARG_OF_PERICENTER":"54.6695","TIME_SYSTEM":"UTC","ECCENTRICITY":"0.00015780","MEAN_MOTION":"15.31178759","LAUNCH_DATE":"2022-02-03","PERIOD":"94.045","REV_AT_EPOCH":"369","SITE":"AFETR","ELEMENT_SET_NO":"999","TLE_LINE1":"1 51469U 22010P   22089.91667824 -.00710251  00000-0 -25187-1 0  9996","DECAY_DATE":null,"PERIAPSIS":"471.215","FILE":"3380787","BSTAR":"-0.02518700000000","OBJECT_ID":"2022-010P","SEMIMAJOR_AXIS":"6850.431","MEAN_MOTION_DOT":"-0.00710251","GP_ID":"200100258","NORAD_CAT_ID":"51469","MEAN_MOTION_DDOT":"0.0000000000000","EPOCH":"2022-03-30T22:00:00.999936","REF_FRAME":"TEME","INCLINATION":"53.2175"},{"OBJECT_NAME":"STARLINK-3165","TLE_LINE2":"2 51471  53.2133 260.1849 0001326  51.4166 308.6960 15.43731953  9497","MEAN_ELEMENT_THEORY":"SGP4","RCS_SIZE":"MEDIUM","EPHEMERIS_TYPE":"0","APOAPSIS":"436.012","RA_OF_ASC_NODE":"260.1849","OBJECT_TYPE":"PAYLOAD","COUNTRY_CODE":"US","MEAN_ANOMALY":"308.6960","CENTER_NAME":"EARTH","CLASSIFICATION_TYPE":"U","ARG_OF_PERICENTER":"51.4166","ECCENTRICITY":"0.00013260","TIME_SYSTEM":"UTC","MEAN_MOTION":"15.43731953","LAUNCH_DATE":"2022-02-03","PERIOD":"93.280","SITE":"AFETR","REV_AT_EPOCH":"949","ELEMENT_SET_NO":"999","TLE_LINE1":"1 51471U 22010R   22089.89526239 -.00345273  00000-0 -78586-2 0  9990","DECAY_DATE":null,"PERIAPSIS":"434.205","FILE":"3380787","BSTAR":"-0.00785860000000","SEMIMAJOR_AXIS":"6813.244","OBJECT_ID":"2022-010R","MEAN_MOTION_DOT":"-0.00345273","GP_ID":"200100471","NORAD_CAT_ID":"51471","MEAN_MOTION_DDOT":"0.0000000000000","EPOCH":"2022-03-30T21:29:10.670496","REF_FRAME":"TEME","INCLINATION":"53.2133"},{"TLE_LINE2":"2 51472  53.2176 263.5522 0001663  42.3512 264.0911 15.31274368  3683","OBJECT_NAME":"STARLINK-3415","MEAN_ELEMENT_THEORY":"SGP4","RCS_SIZE":"LARGE","EPHEMERIS_TYPE":"0","OBJECT_TYPE":"PAYLOAD","RA_OF_ASC_NODE":"263.5522","APOAPSIS":"473.150","MEAN_ANOMALY":"264.0911","COUNTRY_CODE":"US","CENTER_NAME":"EARTH","ECCENTRICITY":"0.00016630","TIME_SYSTEM":"UTC","CLASSIFICATION_TYPE":"U","ARG_OF_PERICENTER":"42.3512","MEAN_MOTION":"15.31274368","LAUNCH_DATE":"2022-02-03","PERIOD":"94.039","ELEMENT_SET_NO":"999","SITE":"AFETR","REV_AT_EPOCH":"368","TLE_LINE1":"1 51472U 22010S   22089.91667824 -.00713593  00000-0 -25239-1 0  9990","FILE":"3380787","PERIAPSIS":"470.872","DECAY_DATE":null,"BSTAR":"-0.02523900000000","OBJECT_ID":"2022-010S","SEMIMAJOR_AXIS":"6850.146","MEAN_MOTION_DOT":"-0.00713593","GP_ID":"200100784","NORAD_CAT_ID":"51472","EPOCH":"2022-03-30T22:00:00.999936","MEAN_MOTION_DDOT":"0.0000000000000","INCLINATION":"53.2176","REF_FRAME":"TEME"},{"EPHEMERIS_TYPE":"0","RCS_SIZE":"LARGE","MEAN_ELEMENT_THEORY":"SGP4","TLE_LINE2":"2 51714  53.2174 316.2580 0001230  61.7751 299.2562 15.49667569  3725","OBJECT_NAME":"STARLINK-3528","OBJECT_TYPE":"PAYLOAD","RA_OF_ASC_NODE":"316.2580","APOAPSIS":"418.536","MEAN_ANOMALY":"299.2562","COUNTRY_CODE":"US","MEAN_MOTION":"15.49667569","TIME_SYSTEM":"UTC","ECCENTRICITY":"0.00012300","ARG_OF_PERICENTER":"61.7751","CLASSIFICATION_TYPE":"U","CENTER_NAME":"EARTH","TLE_LINE1":"1 51714U 22016A   22089.91667824 -.00724208  00000-0 -13891-1 0  9991","ELEMENT_SET_NO":"999","SITE":"AFETR","REV_AT_EPOCH":"372","PERIOD":"92.923","LAUNCH_DATE":"2022-02-21","MEAN_MOTION_DOT":"-0.00724208","OBJECT_ID":"2022-016A","SEMIMAJOR_AXIS":"6795.835","BSTAR":"-0.01389100000000","FILE":"3380787","PERIAPSIS":"416.864","DECAY_DATE":null,"GP_ID":"200100070","INCLINATION":"53.2174","REF_FRAME":"TEME","MEAN_MOTION_DDOT":"0.0000000000000","EPOCH":"2022-03-30T22:00:00.999936","NORAD_CAT_ID":"51714"},{"NORAD_CAT_ID":"51715","MEAN_MOTION_DDOT":"0.0000000000000","EPOCH":"2022-03-30T22:00:00.999936","INCLINATION":"53.2174","REF_FRAME":"TEME","GP_ID":"200100280","FILE":"3380787","PERIAPSIS":"415.690","DECAY_DATE":null,"BSTAR":"-0.01371600000000","SEMIMAJOR_AXIS":"6794.713","OBJECT_ID":"2022-016B","MEAN_MOTION_DOT":"-0.00724874","LAUNCH_DATE":"2022-02-21","PERIOD":"92.900","ELEMENT_SET_NO":"999","SITE":"AFETR","REV_AT_EPOCH":"372","TLE_LINE1":"1 51715U 22016B   22089.91667824 -.00724874  00000-0 -13716-1 0  9997","CENTER_NAME":"EARTH","ECCENTRICITY":"0.00013070","TIME_SYSTEM":"UTC","ARG_OF_PERICENTER":"54.5037","CLASSIFICATION_TYPE":"U","MEAN_MOTION":"15.50051434","MEAN_ANOMALY":"329.5146","COUNTRY_CODE":"US","OBJECT_TYPE":"PAYLOAD","APOAPSIS":"417.466","RA_OF_ASC_NODE":"316.2545","TLE_LINE2":"2 51715  53.2174 316.2545 0001307  54.5037 329.5146 15.50051434  3724","OBJECT_NAME":"STARLINK-3533","MEAN_ELEMENT_THEORY":"SGP4","RCS_SIZE":"LARGE","EPHEMERIS_TYPE":"0"},{"RCS_SIZE":"LARGE","EPHEMERIS_TYPE":"0","TLE_LINE2":"2 51716  53.2174 316.2570 0001177  68.5236 300.2084 15.49795496  3722","OBJECT_NAME":"STARLINK-3543","MEAN_ELEMENT_THEORY":"SGP4","OBJECT_TYPE":"PAYLOAD","RA_OF_ASC_NODE":"316.2570","APOAPSIS":"418.126","MEAN_ANOMALY":"300.2084","COUNTRY_CODE":"US","ECCENTRICITY":"0.00011770","TIME_SYSTEM":"UTC","ARG_OF_PERICENTER":"68.5236","CLASSIFICATION_TYPE":"U","MEAN_MOTION":"15.49795496","CENTER_NAME":"EARTH","ELEMENT_SET_NO":"999","REV_AT_EPOCH":"372","SITE":"AFETR","TLE_LINE1":"1 51716U 22016C   22089.91667824 -.00724345  00000-0 -13831-1 0  9999","LAUNCH_DATE":"2022-02-21","PERIOD":"92.915","SEMIMAJOR_AXIS":"6795.461","OBJECT_ID":"2022-016C","MEAN_MOTION_DOT":"-0.00724345","PERIAPSIS":"416.526","FILE":"3380787","DECAY_DATE":null,"BSTAR":"-0.01383100000000","GP_ID":"200100493","EPOCH":"2022-03-30T22:00:00.999936","MEAN_MOTION_DDOT":"0.0000000000000","INCLINATION":"53.2174","REF_FRAME":"TEME","NORAD_CAT_ID":"51716"},{"LAUNCH_DATE":"2022-02-21","PERIOD":"92.908","SITE":"AFETR","REV_AT_EPOCH":"372","ELEMENT_SET_NO":"999","TLE_LINE1":"1 51717U 22016D   22089.91667824 -.00724748  00000-0 -13776-1 0  9995","DECAY_DATE":null,"PERIAPSIS":"416.064","FILE":"3380787","BSTAR":"-0.01377600000000","OBJECT_ID":"2022-016D","SEMIMAJOR_AXIS":"6795.087","MEAN_MOTION_DOT":"-0.00724748","GP_ID":"200100806","NORAD_CAT_ID":"51717","EPOCH":"2022-03-30T22:00:00.999936","MEAN_MOTION_DDOT":"0.0000000000000","REF_FRAME":"TEME","INCLINATION":"53.2174","OBJECT_NAME":"STARLINK-3445","TLE_LINE2":"2 51717  53.2174 316.2557 0001306  54.7391 321.6553 15.49923539  3720","MEAN_ELEMENT_THEORY":"SGP4","RCS_SIZE":"LARGE","EPHEMERIS_TYPE":"0","RA_OF_ASC_NODE":"316.2557","APOAPSIS":"417.839","OBJECT_TYPE":"PAYLOAD","COUNTRY_CODE":"US","MEAN_ANOMALY":"321.6553","CENTER_NAME":"EARTH","ARG_OF_PERICENTER":"54.7391","CLASSIFICATION_TYPE":"U","TIME_SYSTEM":"UTC","ECCENTRICITY":"0.00013060","MEAN_MOTION":"15.49923539"}];
